MEAN_MOTION;ECCENTRICITY;INCLINATION;RA_OF_ASC_NODE;ARG_OF_PERICENTER;MEAN_ANOMALY;BSTAR;MEAN_MOTION_DOT;MEAN_MOTION_DDOT;TYPE
12.38103425;0.0002267;52.003;144.6489;134.2958;25.9746;-0.00046863;-1.58E-6;0;Globalstar
12.38103293;0.0002222;52.003;141.6008;136.34;14.9557;-0.00050598;-1.63E-6;0;Globalstar
12.38103414;0.0002181;52.0029;138.7885;138.339;2.5088;-0.00031706;-1.38E-6;0;Globalstar
12.38103508;0.0002146;52.0029;136.1995;140.1981;7.9806;-0.00017043;-1.19E-6;0;Globalstar
12.38103603;0.000211;52.0028;133.3806;142.0227;5.7393;-3.5205E-5;-1.01E-6;0;Globalstar
12.38103705;0.0002088;52.0023;130.6008;143.8482;303.8656;0.00028389;-6.0E-7;0;Globalstar
12.3810383;0.0002062;52.0023;127.7847;145.6785;297.1589;0.00038921;-4.6E-7;0;Globalstar
12.38103909;0.0002044;52.0023;125.9486;146.9078;229.451;0.00041287;-4.3E-7;0;Globalstar
12.38103885;0.0002056;52.0023;124.7214;147.5752;309.3058;0.00033712;-5.3E-7;0;Globalstar
12.38103918;0.0002046;52.0023;122.8639;148.7451;274.5367;0.0002743;-6.1E-7;0;Globalstar
12.38103883;0.0002024;52.0022;120.7566;150.103;261.9854;0.00015353;-7.7E-7;0;Globalstar
12.38103849;0.0002022;52.0022;119.8323;150.6692;237.8614;7.8151E-5;-8.6E-7;0;Globalstar
12.38103767;0.0002008;52.0022;118.5771;151.4365;0.4347;-2.4716E-5;-1.0E-6;0;Globalstar
12.38103695;0.0001997;52.0021;116.7462;152.6312;284.6587;-0.00014338;-1.15E-6;0;Globalstar
12.38103609;0.0001978;52.0025;115.7651;153.3305;347.0655;-0.00010569;-1.1E-6;0;Globalstar
12.3810351;0.0001965;52.0025;113.2094;155.0877;301.4387;-0.00020252;-1.23E-6;0;Globalstar
12.38103512;0.0001958;52.0025;112.9483;155.2064;341.4245;-0.0001978;-1.22E-6;0;Globalstar
12.3810337;0.0001914;52.0025;110.1393;156.8576;323.9585;-0.00031818;-1.38E-6;0;Globalstar
12.38103346;0.0001901;52.0025;109.0002;157.6634;268.6853;-0.00032039;-1.38E-6;0;Globalstar
12.38103304;0.000188;52.0025;107.0618;158.8214;357.7469;-0.00031696;-1.38E-6;0;Globalstar
12.38103304;0.000188;52.0025;107.0618;158.8214;357.7469;-0.00031696;-1.38E-6;0;Globalstar
12.38103304;0.0001868;52.0025;105.9736;159.6226;224.3965;-0.00028136;-1.33E-6;0;Globalstar
12.38103339;0.0001845;52.0025;104.2533;160.5306;339.5803;-0.00021102;-1.24E-6;0;Globalstar
12.38103326;0.0001835;52.0025;103.1209;161.4106;274.0121;-0.00020848;-1.24E-6;0;Globalstar
12.3810343;0.0001803;52.0026;100.0935;163.3443;230.8645;-1.7448E-5;-9.9E-7;0;Globalstar
12.38103407;0.0001796;52.0021;99.3435;164.0329;299.2104;5.6985E-5;-8.9E-7;0;Globalstar
12.38103447;0.0001767;52.0022;97.2409;165.3009;279.8431;0.00014379;-7.8E-7;0;Globalstar
12.38103456;0.0001751;52.0022;95.7867;166.0948;347.293;0.00015841;-7.6E-7;0;Globalstar
12.38103494;0.0001734;52.0023;94.4255;167.0289;272.1642;0.00018475;-7.3E-7;0;Globalstar
12.38103525;0.0001709;52.0023;92.7414;167.8758;331.8891;0.00017641;-7.4E-7;0;Globalstar
12.38103527;0.0001705;52.0023;92.4935;168.0415;351.6374;0.00016504;-7.5E-7;0;Globalstar
12.38103563;0.0001695;52.0024;91.3979;168.8731;229.5879;0.00018827;-7.2E-7;0;Globalstar
12.38103597;0.0001679;52.0024;89.9248;169.6634;326.0694;0.00018862;-7.2E-7;0;Globalstar
12.3810358;0.0001653;52.0026;87.8467;170.8131;269.2176;0.00010096;-8.3E-7;0;Globalstar
12.38103625;0.0001635;52.0026;86.8621;171.2657;337.5747;0.00012701;-8.0E-7;0;Globalstar
12.3810363;0.0001616;52.0027;85.494;171.9945;273.3018;9.6542E-5;-8.4E-7;0;Globalstar
12.3810371;0.000158;52.0028;81.9836;174.0844;250.3053;9.85E-5;-8.4E-7;0;Globalstar
12.38103695;0.000157;52.0029;81.2068;174.5621;0.1884;6.4231E-5;-8.8E-7;0;Globalstar
12.38103736;0.0001511;52.0031;77.2818;176.336;252.9297;3.9454E-5;-9.2E-7;0;Globalstar
12.38103721;0.0001508;52.0031;76.8348;176.5761;217.6993;8.935E-6;-9.6E-7;0;Globalstar
12.38103885;0.0001493;52.0032;75.3505;177.3132;331.3689;0.00016912;-7.5E-7;0;Globalstar
12.38103927;0.0001475;52.0033;73.5172;178.3239;259.4852;0.00018211;-7.3E-7;0;Globalstar
12.38104005;0.0001459;52.0034;72.5288;178.7389;333.6579;0.00026233;-6.2E-7;0;Globalstar
12.38104084;0.0001438;52.0036;70.2118;179.9422;282.9264;0.00031292;-5.6E-7;0;Globalstar
12.38104108;0.0001435;52.0036;69.9476;180.0067;327.8449;0.00033386;-5.3E-7;0;Globalstar
12.38104232;0.0001409;52.0038;67.1284;181.8235;325.9625;0.00038077;-4.7E-7;0;Globalstar
12.38104408;0.000138;52.0041;63.8379;183.989;326.0768;0.0004327;-4.0E-7;0;Globalstar
12.38104602;0.0001356;52.0045;59.6987;187.0888;185.8446;0.00047703;-3.4E-7;0;Globalstar
12.38104603;0.0001354;52.0045;59.4577;187.1719;195.105;0.00046011;-3.7E-7;0;Globalstar
12.38104541;0.000136;52.0046;58.207;188.5649;310.3485;0.00036311;-4.9E-7;0;Globalstar
12.38104507;0.0001343;52.0048;55.8817;189.9529;272.3676;0.00024085;-6.5E-7;0;Globalstar
12.38104457;0.0001338;52.0048;55.3978;190.323;293.5187;0.00017614;-7.4E-7;0;Globalstar
12.38104458;0.000131;52.005;52.5818;191.7917;287.4257;0.00011088;-8.2E-7;0;Globalstar
12.38104466;0.0001294;52.0051;51.462;192.472;202.7343;9.9196E-5;-8.4E-7;0;Globalstar
12.3810447;0.0001273;52.0053;47.9344;194.2517;206.6378;5.4197E-5;-9.0E-7;0;Globalstar
12.38104501;0.0001264;52.0053;46.4483;194.5771;323.8667;7.6265E-5;-8.7E-7;0;Globalstar
12.38104632;0.0001232;52.0055;42.0675;197.0431;194.7362;0.00014735;-7.7E-7;0;Globalstar
12.381047;0.0001224;52.0056;41.3245;197.6299;252.9592;0.00021816;-6.8E-7;0;Globalstar
12.38104807;0.0001209;52.0057;38.9841;199.1896;237.8819;0.00029958;-5.8E-7;0;Globalstar
12.38104799;0.0001203;52.0057;38.2215;199.86;325.8078;0.00029297;-5.8E-7;0;Globalstar
12.38104835;0.0001187;52.0059;36.1667;201.416;233.2898;0.0002883;-5.9E-7;0;Globalstar
12.38104791;0.0001182;52.0059;35.1855;202.5103;295.8935;0.00024234;-6.5E-7;0;Globalstar
12.38104689;0.0001159;52.006;32.1225;205.2271;307.2561;8.9475E-5;-8.5E-7;0;Globalstar
12.38104715;0.0001146;52.0061;30.2909;206.3875;232.9642;9.1798E-5;-8.5E-7;0;Globalstar
12.38104537;0.0001147;52.0061;29.3052;207.9024;302.4897;-0.00014143;-1.15E-6;0;Globalstar
12.38104436;0.0001133;52.0061;27.4939;208.6907;197.5218;-0.00021478;-1.25E-6;0;Globalstar
12.38104324;0.0001125;52.0062;26.7204;209.3087;302.3423;-0.00027782;-1.33E-6;0;Globalstar
12.38104281;0.0001121;52.0062;26.4917;209.6939;292.3804;-0.00030994;-1.37E-6;0;Globalstar
12.38104051;0.0001101;52.0062;24.4168;210.3968;231.3271;-0.00047209;-1.58E-6;0;Globalstar
12.38103897;0.0001097;52.0062;23.6747;211.0777;287.8959;-0.00059573;-1.74E-6;0;Globalstar
12.38103691;0.0001077;52.0063;21.5984;211.951;228.8852;-0.00069186;-1.87E-6;0;Globalstar
12.38103629;0.0001069;52.0063;20.612;212.2021;300.2273;-0.00070382;-1.88E-6;0;Globalstar
12.381035;0.0001056;52.0063;18.7805;213.1512;225.9741;-0.00075576;-1.95E-6;0;Globalstar
12.38103601;0.0001032;52.0064;15.963;214.0827;222.9302;-0.00056023;-1.7E-6;0;Globalstar
12.3810394;0.0001012;52.0063;12.9064;215.0537;226.2444;-0.00020603;-1.24E-6;0;Globalstar
12.38104113;0.0001004;52.0063;12.1648;215.2366;282.5728;-3.5361E-5;-1.01E-6;0;Globalstar
12.38104261;9.92E-5;52.0063;10.0715;216.2097;249.4284;0.00019278;-7.2E-7;0;Globalstar
12.38104419;9.66E-5;52.006;7.2702;217.4321;221.6744;0.00043813;-4.0E-7;0;Globalstar
12.38104483;9.64E-5;52.006;7.0094;217.6332;261.2002;0.00051404;-3.0E-7;0;Globalstar
12.38104503;9.58E-5;52.006;6.2844;218.3281;291.5636;0.00052025;-2.9E-7;0;Globalstar
12.38104602;9.53E-5;52.0059;4.4366;219.426;241.9985;0.0005536;-2.4E-7;0;Globalstar
12.38104607;9.47E-5;52.0059;3.4707;220.596;281.0241;0.00053877;-2.6E-7;0;Globalstar
12.38104653;9.38E-5;52.0058;1.1474;222.1986;239.7841;0.00049928;-3.2E-7;0;Globalstar
12.38104573;9.35E-5;52.0058;0.6544;222.6656;274.8592;0.00040507;-4.4E-7;0;Globalstar
12.38104461;9.23E-5;52.0057;358.5775;223.9613;216.2094;0.00020135;-7.0E-7;0;Globalstar
12.38104429;9.24E-5;52.0057;358.3271;224.0348;239.9034;0.00017147;-7.4E-7;0;Globalstar
12.38104086;9.2E-5;52.0058;355.529;226.867;204.6739;-0.00016957;-1.19E-6;0;Globalstar
12.38104042;9.14E-5;52.0058;354.7723;227.4666;283.7673;-0.00020052;-1.23E-6;0;Globalstar
12.38103879;9.06E-5;52.0057;352.4532;228.5279;236.499;-0.00037298;-1.45E-6;0;Globalstar
12.38103888;9.03E-5;52.0056;349.885;229.376;211.2308;-0.00032477;-1.39E-6;0;Globalstar
12.38103937;9.0E-5;52.0056;349.6367;229.4619;231.6733;-0.000279;-1.33E-6;0;Globalstar
12.38104173;8.93E-5;52.0054;346.0805;230.6931;280.0515;-7.2732E-5;-1.06E-6;0;Globalstar
12.38104253;8.91E-5;52.0054;344.514;231.576;159.6367;1.5174E-5;-9.5E-7;0;Globalstar
12.38104525;8.63E-5;52.005;341.2024;232.7288;193.9452;0.000384;-4.7E-7;0;Globalstar
12.38104536;8.61E-5;52.005;340.9424;232.8227;232.3293;0.00039579;-4.5E-7;0;Globalstar
12.38104611;8.61E-5;52.0049;340.4491;233.3309;267.69;0.00048421;-3.3E-7;0;Globalstar
12.38104839;8.57E-5;52.0048;338.1257;234.7166;226.5259;0.00064489;-1.3E-7;0;Globalstar
12.38104997;8.51E-5;52.0047;336.3046;236.3451;135.4991;0.00072838;-2.0E-8;0;Globalstar
12.38105127;8.51E-5;52.0047;335.0772;236.7749;215.9438;0.00080255;8.0E-8;0;Globalstar
12.38105148;8.47E-5;52.0046;334.5702;238.0141;271.547;0.00080334;8.0E-8;0;Globalstar
12.38105244;8.47E-5;52.0046;332.2606;239.3426;209.2304;0.00076148;3.0E-8;0;Globalstar
12.38105371;8.41E-5;52.0045;329.9399;241.9928;162.7408;0.00075632;2.0E-8;0;Globalstar
12.38105346;8.4E-5;52.0045;329.4447;242.4642;201.0472;0.00070868;-4.0E-8;0;Globalstar
12.38105376;8.36E-5;52.0044;326.6299;245.1306;191.6565;0.00057034;-2.2E-7;0;Globalstar
12.38105355;8.33E-5;52.0044;326.3819;245.6055;211.1872;0.00054109;-2.6E-7;0;Globalstar
12.38105319;8.25E-5;52.0044;323.5656;248.8151;203.489;0.00035048;-5.1E-7;0;Globalstar
12.38105313;8.22E-5;52.0044;323.0586;249.8749;259.4264;0.00032059;-5.5E-7;0;Globalstar
12.38105192;8.2E-5;52.0043;320.7495;251.8442;195.7762;0.00010802;-8.3E-7;0;Globalstar
12.38105025;8.33E-5;52.0045;317.9199;255.2839;208.517;-1.3015E-5;-9.8E-7;0;Globalstar
12.38104995;8.3E-5;52.0045;317.6801;255.9531;215.3844;-4.9458E-5;-1.03E-6;0;Globalstar
12.38104828;8.31E-5;52.0045;314.5882;258.5639;270.5342;-0.00020329;-1.23E-6;0;Globalstar
12.38104808;8.29E-5;52.0045;314.3611;258.7167;258.3969;-0.00022789;-1.26E-6;0;Globalstar
